STARLINK-37172
1 68395U 26063R   26092.75002314 -.01835985  10145-2 -36307-2 0  9994
2 68395  97.2814 233.5544 0001588  73.7100 105.7685 16.00132100  2323
